*******************************************************************************
JPL/HORIZONS                785 Zwetana (A914 FD)          2023-Sep-04 11:08:18
Rec #:     785 (+COV) Soln.date: 2023-Aug-24_18:03:54   # obs: 4746 (1904-2023)
 
IAU76/J2000 helio. ecliptic osc. elements (au, days, deg., period=Julian yrs):
 
  EPOCH=  2457282.5 ! 2015-Sep-17.00 (TDB)         Residual RMS= .23563
   EC= .2104905210012219   QR= 2.028397405364526   TP= 2457983.9991524285
   OM= 71.88408898383184   W=  131.5671723265314   IN= 12.76713924275252
   A= 2.569186893027367    MA= 192.105032823819    ADIST= 3.109976380690208
   PER= 4.11815            N= .239337377           ANGMOM= .026954958
   DAN= 2.85394            DDN= 2.15446            L= 204.1642972
   B= 9.516947200000001    MOID= 1.04533005        TP= 2017-Aug-18.4991524285
 
Asteroid physical parameters (km, seconds, rotational period in hours):
   GM= n.a.                RAD= 24.73              ROTPER= 8.8882
   H= 9.51                 G= .150                 B-V= .645
                           ALBEDO= .120            STYP= Cb

ASTEROID comments: 
1: soln ref.= JPL#93, OCC=0
2: source=ORB
*******************************************************************************


*******************************************************************************
Ephemeris / API_USER Mon Sep  4 11:08:18 2023 Pasadena, USA      / Horizons
*******************************************************************************
Target body name: 785 Zwetana (A914 FD)           {source: JPL#93}
Center body name: Solar System Barycenter (0)     {source: DE441}
Center-site name: BODY CENTER
*******************************************************************************
Start time      : A.D. 2023-Aug-12 00:00:00.0000 TDB
Stop  time      : A.D. 2023-Aug-13 00:00:00.0000 TDB
Step-size       : 2880 minutes
*******************************************************************************
Center geodetic : 0.0, 0.0, 0.0                   {E-lon(deg),Lat(deg),Alt(km)}
Center cylindric: 0.0, 0.0, 0.0                   {E-lon(deg),Dxy(km),Dz(km)}
Center radii    : (undefined)
Small perturbers: Yes                             {source: SB441-N16}
Output units    : KM-S
Calendar mode   : Mixed Julian/Gregorian
Output type     : GEOMETRIC cartesian states
Output format   : 2 (position and velocity)
Reference frame : Ecliptic of J2000.0
*******************************************************************************
Initial IAU76/J2000 heliocentric ecliptic osculating elements (au, days, deg.):
  EPOCH=  2457282.5 ! 2015-Sep-17.00 (TDB)         Residual RMS= .23563        
   EC= .2104905210012219   QR= 2.028397405364526   TP= 2457983.9991524285      
   OM= 71.88408898383184   W=  131.5671723265314   IN= 12.76713924275252       
  Equivalent ICRF heliocentric cartesian coordinates (au, au/d):
   X= 2.596311269293722E+00  Y= 1.679356797535024E+00  Z= 2.444508460657228E-01
  VX=-4.662603213422035E-03 VY= 5.990160002775902E-03 VZ= 4.243156762823750E-03
Asteroid physical parameters (km, seconds, rotational period in hours):        
   GM= n.a.                RAD= 24.73              ROTPER= 8.8882              
   H= 9.51                 G= .150                 B-V= .645                   
                           ALBEDO= .120            STYP= Cb                    
*******************************************************************************
JDTDB
   X     Y     Z
   VX    VY    VZ
*******************************************************************************
$$SOE
2460168.500000000 = A.D. 2023-Aug-12 00:00:00.0000 TDB 
 X = 4.419237874394329E+08 Y = 9.849499246975507E+07 Z =-8.840671335381615E+07
 VX=-2.174298817506455E+00 VY= 1.487772438960110E+01 VZ= 1.523564807987544E+00
$$EOE
*******************************************************************************
 
TIME

  Barycentric Dynamical Time ("TDB" or T_eph) output was requested. This
continuous coordinate time is equivalent to the relativistic proper time
of a clock at rest in a reference frame co-moving with the solar system
barycenter but outside the system's gravity well. It is the independent
variable in the solar system relativistic equations of motion.

  TDB runs at a uniform rate of one SI second per second and is independent
of irregularities in Earth's rotation.
 
CALENDAR SYSTEM

  Mixed calendar mode was active such that calendar dates after AD 1582-Oct-15
(if any) are in the modern Gregorian system. Dates prior to 1582-Oct-5 (if any)
are in the Julian calendar system, which is automatically extended for dates
prior to its adoption on 45-Jan-1 BC.  The Julian calendar is useful for
matching historical dates. The Gregorian calendar more accurately corresponds
to the Earth's orbital motion and seasons. A "Gregorian-only" calendar mode is
available if such physical events are the primary interest.

REFERENCE FRAME AND COORDINATES

  Ecliptic at the standard reference epoch

    Reference epoch: J2000.0
    X-Y plane: adopted Earth orbital plane at the reference epoch
               Note: IAU76 obliquity of 84381.448 arcseconds wrt ICRF X-Y plane
    X-axis   : ICRF
    Z-axis   : perpendicular to the X-Y plane in the directional (+ or -) sense
               of Earth's north pole at the reference epoch.

  Symbol meaning:

    JDTDB    Julian Day Number, Barycentric Dynamical Time
      X      X-component of position vector (km)
      Y      Y-component of position vector (km)
      Z      Z-component of position vector (km)
      VX     X-component of velocity vector (km/sec)                           
      VY     Y-component of velocity vector (km/sec)                           
      VZ     Z-component of velocity vector (km/sec)                           

ABERRATIONS AND CORRECTIONS

 Geometric state vectors have NO corrections or aberrations applied.

Computations by ...

    Solar System Dynamics Group, Horizons On-Line Ephemeris System
    4800 Oak Grove Drive, Jet Propulsion Laboratory
    Pasadena, CA  91109   USA

    General site: https://ssd.jpl.nasa.gov/
    Mailing list: https://ssd.jpl.nasa.gov/email_list.html
    System news : https://ssd.jpl.nasa.gov/horizons/news.html
    User Guide  : https://ssd.jpl.nasa.gov/horizons/manual.html
    Connect     : browser        https://ssd.jpl.nasa.gov/horizons/app.html#/x
                  API            https://ssd-api.jpl.nasa.gov/doc/horizons.html
                  command-line   telnet ssd.jpl.nasa.gov 6775
                  e-mail/batch   https://ssd.jpl.nasa.gov/ftp/ssd/hrzn_batch.txt
                  scripts        https://ssd.jpl.nasa.gov/ftp/ssd/SCRIPTS
    Author      : Jon.D.Giorgini@jpl.nasa.gov
*******************************************************************************
